IRIDIUM 150             
1 43257U 18030J   25275.63253897  .00000248  00000+0  81454-4 0  9996
2 43257  86.3985  38.1150 0002206  87.9306 272.2142 14.34217518393240
IRIDIUM 143             
1 43258U 18030K   25275.61350814  .00000600  00000+0  20723-3 0  9995
2 43258  86.3988  38.2054 0002334  83.2680 276.8781 14.34216530393178
IRIDIUM 161             
1 43478U 18047C   25275.18893567  .00001149  00000+0  33570-3 0  9999
2 43478  86.4559 196.2376 0002376  85.9203 274.2269 14.43276444387924
IRIDIUM 152             
1 43479U 18047D   25275.30715221  .00000300  00000+0  10006-3 0  9991
2 43479  86.4031 196.0491 0002268  86.6542 273.4913 14.34220317385529
IRIDIUM 147             
1 43480U 18047E   25275.52280296  .00000545  00000+0  18748-3 0  9998
2 43480  86.4034 195.9600 0002024  83.7699 276.3727 14.34220053385550
IRIDIUM 110             
1 43481U 18047F   25275.52914323  .00000273  00000+0  90313-4 0  9991
2 43481  86.4037 196.0423 0002109  97.0070 263.1365 14.34219919385544
IRIDIUM 162             
1 43482U 18047G   25275.52928876  .00001055  00000+0  30779-3 0  9998
2 43482  86.4565 195.9899 0002547  87.6721 272.4771 14.43270895387962
IRIDIUM 160             
1 43569U 18061A   25275.19590212  .00000395  00000+0  13407-3 0  9997
2 43569  86.4031 164.6278 0002061  89.2746 270.8686 14.34218244376398
